{
  "links" : {
    "next" : "https://api.nasa.gov/neo/rest/v1/feed?start_date=2010-03-09&end_date=2010-03-09&detailed=true&api_key=t0TVs3DtDT2H8Oy2Zy8m2eVrNsAVKAexjcZXUckd",
    "prev" : "https://api.nasa.gov/neo/rest/v1/feed?start_date=2010-03-07&end_date=2010-03-07&detailed=true&api_key=t0TVs3DtDT2H8Oy2Zy8m2eVrNsAVKAexjcZXUckd",
    "self" : "https://api.nasa.gov/neo/rest/v1/feed?start_date=2010-03-08&end_date=2010-03-08&detailed=true&api_key=t0TVs3DtDT2H8Oy2Zy8m2eVrNsAVKAexjcZXUckd"
  },
  "element_count" : 9,
  "near_earth_objects" : {
    "2010-03-08" : [ {
      "links" : {
        "self" : "https://api.nasa.gov/neo/rest/v1/neo/3508108?api_key=t0TVs3DtDT2H8Oy2Zy8m2eVrNsAVKAexjcZXUckd"
      },
      "neo_reference_id" : "3508108",
      "name" : "(2010 CL18)",
      "nasa_jpl_url" : "http://ssd.jpl.nasa.gov/sbdb.cgi?sstr=3508108",
      "absolute_magnitude_h" : 18.3,
      "estimated_diameter" : {
        "kilometers" : {
          "estimated_diameter_min" : 0.5815070396,
          "estimated_diameter_max" : 1.30028927
        },
        "meters" : {
          "estimated_diameter_min" : 581.5070396458,
          "estimated_diameter_max" : 1300.2892700427
        },
        "miles" : {
          "estimated_diameter_min" : 0.3613316107,
          "estimated_diameter_max" : 0.807962044
        },
        "feet" : {
          "estimated_diameter_min" : 1907.8315559515,
          "estimated_diameter_max" : 4266.0410487267
        }
      },
      "is_potentially_hazardous_asteroid" : false,
      "close_approach_data" : [ {
        "close_approach_date" : "2010-03-08",
        "epoch_date_close_approach" : 1268035200000,
        "relative_velocity" : {
          "kilometers_per_second" : "14.2999036308",
          "kilometers_per_hour" : "51479.6530707187",
          "miles_per_hour" : "31987.4544316363"
        },
        "miss_distance" : {
          "astronomical" : "0.3068716575",
          "lunar" : "119.3730697632",
          "kilometers" : "45907348",
          "miles" : "28525502"
        },
        "orbiting_body" : "Earth"
      } ],
      "orbital_data" : {
        "orbit_id" : "61",
        "orbit_determination_date" : "2017-04-06 08:58:28",
        "orbit_uncertainty" : "1",
        "minimum_orbit_intersection" : ".216928",
        "jupiter_tisserand_invariant" : "3.068",
        "epoch_osculation" : "2458000.5",
        "eccentricity" : ".5615723659011199",
        "semi_major_axis" : "2.682523331990622",
        "inclination" : "18.25976160839709",
        "ascending_node_longitude" : "160.1661316130061",
        "orbital_period" : "1604.773296093031",
        "perihelion_distance" : "1.176092357859693",
        "perihelion_argument" : "30.29227631477205",
        "aphelion_distance" : "4.188954306121551",
        "perihelion_time" : "2458481.230842255329",
        "mean_anomaly" : "252.1572887377573",
        "mean_motion" : ".2243307518117689",
        "equinox" : "J2000"
      }
    }, {
      "links" : {
        "self" : "https://api.nasa.gov/neo/rest/v1/neo/3589591?api_key=t0TVs3DtDT2H8Oy2Zy8m2eVrNsAVKAexjcZXUckd"
      },
      "neo_reference_id" : "3589591",
      "name" : "(2011 WS74)",
      "nasa_jpl_url" : "http://ssd.jpl.nasa.gov/sbdb.cgi?sstr=3589591",
      "absolute_magnitude_h" : 23.9,
      "estimated_diameter" : {
        "kilometers" : {
          "estimated_diameter_min" : 0.04411182,
          "estimated_diameter_max" : 0.0986370281
        },
        "meters" : {
          "estimated_diameter_min" : 44.1118199997,
          "estimated_diameter_max" : 98.6370281305
        },
        "miles" : {
          "estimated_diameter_min" : 0.0274098057,
          "estimated_diameter_max" : 0.0612901888
        },
        "feet" : {
          "estimated_diameter_min" : 144.7238235278,
          "estimated_diameter_max" : 323.6123073718
        }
      },
      "is_potentially_hazardous_asteroid" : false,
      "close_approach_data" : [ {
        "close_approach_date" : "2010-03-08",
        "epoch_date_close_approach" : 1268035200000,
        "relative_velocity" : {
          "kilometers_per_second" : "13.3240564656",
          "kilometers_per_hour" : "47966.6032761438",
          "miles_per_hour" : "29804.5819078906"
        },
        "miss_distance" : {
          "astronomical" : "0.4013868675",
          "lunar" : "156.1394805908",
          "kilometers" : "60046620",
          "miles" : "37311240"
        },
        "orbiting_body" : "Earth"
      } ],
      "orbital_data" : {
        "orbit_id" : "20",
        "orbit_determination_date" : "2017-04-06 08:51:49",
        "orbit_uncertainty" : "4",
        "minimum_orbit_intersection" : ".0180031",
        "jupiter_tisserand_invariant" : "6.141",
        "epoch_osculation" : "2458000.5",
        "eccentricity" : ".3507993056454944",
        "semi_major_axis" : ".9717092200054737",
        "inclination" : "13.75094367481702",
        "ascending_node_longitude" : "67.52576522660648",
        "orbital_period" : "349.8669444758215",
        "perihelion_distance" : ".6308343003382286",
        "perihelion_argument" : "117.7802378567673",
        "aphelion_distance" : "1.312584139672719",
        "perihelion_time" : "2458071.731166679134",
        "mean_anomaly" : "286.7057937042107",
        "mean_motion" : "1.028962597593666",
        "equinox" : "J2000"
      }
    }, {
      "links" : {
        "self" : "https://api.nasa.gov/neo/rest/v1/neo/3719376?api_key=t0TVs3DtDT2H8Oy2Zy8m2eVrNsAVKAexjcZXUckd"
      },
      "neo_reference_id" : "3719376",
      "name" : "(2015 KQ18)",
      "nasa_jpl_url" : "http://ssd.jpl.nasa.gov/sbdb.cgi?sstr=3719376",
      "absolute_magnitude_h" : 25.4,
      "estimated_diameter" : {
        "kilometers" : {
          "estimated_diameter_min" : 0.022108281,
          "estimated_diameter_max" : 0.0494356193
        },
        "meters" : {
          "estimated_diameter_min" : 22.1082810359,
          "estimated_diameter_max" : 49.435619262
        },
        "miles" : {
          "estimated_diameter_min" : 0.0137374447,
          "estimated_diameter_max" : 0.0307178602
        },
        "feet" : {
          "estimated_diameter_min" : 72.5337327539,
          "estimated_diameter_max" : 162.1903570994
        }
      },
      "is_potentially_hazardous_asteroid" : false,
      "close_approach_data" : [ {
        "close_approach_date" : "2010-03-08",
        "epoch_date_close_approach" : 1268035200000,
        "relative_velocity" : {
          "kilometers_per_second" : "26.3245747493",
          "kilometers_per_hour" : "94768.4690974044",
          "miles_per_hour" : "58885.4412566622"
        },
        "miss_distance" : {
          "astronomical" : "0.4526192178",
          "lunar" : "176.0688781738",
          "kilometers" : "67710872",
          "miles" : "42073584"
        },
        "orbiting_body" : "Earth"
      } ],
      "orbital_data" : {
        "orbit_id" : "5",
        "orbit_determination_date" : "2017-04-06 08:33:42",
        "orbit_uncertainty" : "5",
        "minimum_orbit_intersection" : ".0180205",
        "jupiter_tisserand_invariant" : "6.776",
        "epoch_osculation" : "2458000.5",
        "eccentricity" : ".4366432089518958",
        "semi_major_axis" : ".8603633815647342",
        "inclination" : "5.737833579301376",
        "ascending_node_longitude" : "54.03580708122653",
        "orbital_period" : "291.4884183047832",
        "perihelion_distance" : ".4846915537736043",
        "perihelion_argument" : "326.0980792946021",
        "aphelion_distance" : "1.236035209355864",
        "perihelion_time" : "2458119.170644658923",
        "mean_anomaly" : "213.4369484534975",
        "mean_motion" : "1.235040493525134",
        "equinox" : "J2000"
      }
    } ]
  }
}